CCSDS_OMM_VERS = 2.0
CREATION_DATE  = 
ORIGINATOR     = 

OBJECT_NAME    = SL-14 R/B
OBJECT_ID      = 1986-046B
CENTER_NAME    = EARTH
REF_FRAME      = TEME
TIME_SYSTEM    = UTC
MEAN_ELEMENT_THEORY = SGP/SGP4

EPOCH          = 2026-01-04T19:38:59.206848
MEAN_MOTION    = 14.85516954
ECCENTRICITY   = .002453
INCLINATION    = 82.4830
RA_OF_ASC_NODE = 140.5190
ARG_OF_PERICENTER = 79.8155
MEAN_ANOMALY   = 280.5826

EPHEMERIS_TYPE = 0
CLASSIFICATION_TYPE = U
NORAD_CAT_ID   = 16792
ELEMENT_SET_NO = 999
REV_AT_EPOCH   = 11692
BSTAR          = .98565E-4
MEAN_MOTION_DOT = .88E-5
MEAN_MOTION_DDOT = 0

CCSDS_OMM_VERS = 2.0
CREATION_DATE  = 
ORIGINATOR     = 

OBJECT_NAME    = SL-14 R/B
OBJECT_ID      = 1986-055B
CENTER_NAME    = EARTH
REF_FRAME      = TEME
TIME_SYSTEM    = UTC
MEAN_ELEMENT_THEORY = SGP/SGP4

EPOCH          = 2026-01-04T17:44:46.891104
MEAN_MOTION    = 14.85559833
ECCENTRICITY   = .0018863
INCLINATION    = 82.5198
RA_OF_ASC_NODE = 186.7602
ARG_OF_PERICENTER = 179.5255
MEAN_ANOMALY   = 191.0858

EPHEMERIS_TYPE = 0
CLASSIFICATION_TYPE = U
NORAD_CAT_ID   = 16882
ELEMENT_SET_NO = 999
REV_AT_EPOCH   = 10987
BSTAR          = .95727E-4
MEAN_MOTION_DOT = .854E-5
MEAN_MOTION_DDOT = 0

CCSDS_OMM_VERS = 2.0
CREATION_DATE  = 
ORIGINATOR     = 

OBJECT_NAME    = AJISAI (EGS)
OBJECT_ID      = 1986-061A
CENTER_NAME    = EARTH
REF_FRAME      = TEME
TIME_SYSTEM    = UTC
MEAN_ELEMENT_THEORY = SGP/SGP4

EPOCH          = 2026-01-04T18:51:45.241920
MEAN_MOTION    = 12.44514636
ECCENTRICITY   = .0011315
INCLINATION    = 50.0102
RA_OF_ASC_NODE = 289.8528
ARG_OF_PERICENTER = 123.7547
MEAN_ANOMALY   = 282.1969

EPHEMERIS_TYPE = 0
CLASSIFICATION_TYPE = U
NORAD_CAT_ID   = 16908
ELEMENT_SET_NO = 999
REV_AT_EPOCH   = 46004
BSTAR          = .19132E-3
MEAN_MOTION_DOT = -.7E-6
MEAN_MOTION_DDOT = 0

CCSDS_OMM_VERS = 2.0
CREATION_DATE  = 
ORIGINATOR     = 

OBJECT_NAME    = COSMOS 1812
OBJECT_ID      = 1987-003A
CENTER_NAME    = EARTH
REF_FRAME      = TEME
TIME_SYSTEM    = UTC
MEAN_ELEMENT_THEORY = SGP/SGP4

EPOCH          = 2026-01-04T17:58:08.645088
MEAN_MOTION    = 15.81331542
ECCENTRICITY   = .0004716
INCLINATION    = 82.4862
RA_OF_ASC_NODE = 267.0156
ARG_OF_PERICENTER = 59.4862
MEAN_ANOMALY   = 300.6871

EPHEMERIS_TYPE = 0
CLASSIFICATION_TYPE = U
NORAD_CAT_ID   = 17295
ELEMENT_SET_NO = 999
REV_AT_EPOCH   = 13428
BSTAR          = .72359E-3
MEAN_MOTION_DOT = .144325E-2
MEAN_MOTION_DDOT = 0

CCSDS_OMM_VERS = 2.0
CREATION_DATE  = 
ORIGINATOR     = 

OBJECT_NAME    = SL-14 R/B
OBJECT_ID      = 1987-024B
CENTER_NAME    = EARTH
REF_FRAME      = TEME
TIME_SYSTEM    = UTC
MEAN_ELEMENT_THEORY = SGP/SGP4

EPOCH          = 2026-01-04T19:23:31.321824
MEAN_MOTION    = 14.86056253
ECCENTRICITY   = .0019555
INCLINATION    = 82.5289
RA_OF_ASC_NODE = 152.7843
ARG_OF_PERICENTER = 110.8175
MEAN_ANOMALY   = 249.5138

EPHEMERIS_TYPE = 0
CLASSIFICATION_TYPE = U
NORAD_CAT_ID   = 17567
ELEMENT_SET_NO = 999
REV_AT_EPOCH   = 7864
BSTAR          = .10369E-3
MEAN_MOTION_DOT = .934E-5
MEAN_MOTION_DDOT = 0

CCSDS_OMM_VERS = 2.0
CREATION_DATE  = 
ORIGINATOR     = 

OBJECT_NAME    = COSMOS 1833
OBJECT_ID      = 1987-027A
CENTER_NAME    = EARTH
REF_FRAME      = TEME
TIME_SYSTEM    = UTC
MEAN_ELEMENT_THEORY = SGP/SGP4

EPOCH          = 2026-01-04T15:41:46.489920
MEAN_MOTION    = 14.13036104
ECCENTRICITY   = .0023625
INCLINATION    = 70.9184
RA_OF_ASC_NODE = 100.6102
ARG_OF_PERICENTER = 299.8969
MEAN_ANOMALY   = 59.9805

EPHEMERIS_TYPE = 0
CLASSIFICATION_TYPE = U
NORAD_CAT_ID   = 17589
ELEMENT_SET_NO = 999
REV_AT_EPOCH   = 127
BSTAR          = .21684E-3
MEAN_MOTION_DOT = .358E-5
MEAN_MOTION_DDOT = 0

CCSDS_OMM_VERS = 2.0
CREATION_DATE  = 
ORIGINATOR     = 

OBJECT_NAME    = SL-16 R/B
OBJECT_ID      = 1987-027B
CENTER_NAME    = EARTH
REF_FRAME      = TEME
TIME_SYSTEM    = UTC
MEAN_ELEMENT_THEORY = SGP/SGP4

EPOCH          = 2026-01-04T12:44:23.935776
MEAN_MOTION    = 14.17156504
ECCENTRICITY   = .00069014
INCLINATION    = 71.0031
RA_OF_ASC_NODE = 51.6934
ARG_OF_PERICENTER = 235.6640
MEAN_ANOMALY   = 124.3832

EPHEMERIS_TYPE = 0
CLASSIFICATION_TYPE = U
NORAD_CAT_ID   = 17590
ELEMENT_SET_NO = 999
REV_AT_EPOCH   = 625
BSTAR          = .91649743E-4
MEAN_MOTION_DOT = .137E-5
MEAN_MOTION_DDOT = 0

CCSDS_OMM_VERS = 2.0
CREATION_DATE  = 
ORIGINATOR     = 

OBJECT_NAME    = SL-14 R/B
OBJECT_ID      = 1987-038B
CENTER_NAME    = EARTH
REF_FRAME      = TEME
TIME_SYSTEM    = UTC
MEAN_ELEMENT_THEORY = SGP/SGP4

EPOCH          = 2026-01-04T16:51:53.731872
MEAN_MOTION    = 14.85289799
ECCENTRICITY   = .0019839
INCLINATION    = 82.5014
RA_OF_ASC_NODE = 357.0697
ARG_OF_PERICENTER = 20.6883
MEAN_ANOMALY   = 339.5131

EPHEMERIS_TYPE = 0
CLASSIFICATION_TYPE = U
NORAD_CAT_ID   = 17912
ELEMENT_SET_NO = 999
REV_AT_EPOCH   = 6973
BSTAR          = .9757E-4
MEAN_MOTION_DOT = .864E-5
MEAN_MOTION_DDOT = 0

CCSDS_OMM_VERS = 2.0
CREATION_DATE  = 
ORIGINATOR     = 

OBJECT_NAME    = COSMOS 1844
OBJECT_ID      = 1987-041A
CENTER_NAME    = EARTH
REF_FRAME      = TEME
TIME_SYSTEM    = UTC
MEAN_ELEMENT_THEORY = SGP/SGP4

EPOCH          = 2026-01-04T19:51:32.932800
MEAN_MOTION    = 14.14538890
ECCENTRICITY   = .0028748
INCLINATION    = 70.8988
RA_OF_ASC_NODE = 168.8749
ARG_OF_PERICENTER = 120.6591
MEAN_ANOMALY   = 239.7370

EPHEMERIS_TYPE = 0
CLASSIFICATION_TYPE = U
NORAD_CAT_ID   = 17973
ELEMENT_SET_NO = 999
REV_AT_EPOCH   = 99455
BSTAR          = .84914E-4
MEAN_MOTION_DOT = .115E-5
MEAN_MOTION_DDOT = 0

CCSDS_OMM_VERS = 2.0
CREATION_DATE  = 
ORIGINATOR     = 

OBJECT_NAME    = SL-14 R/B
OBJECT_ID      = 1987-055B
CENTER_NAME    = EARTH
REF_FRAME      = TEME
TIME_SYSTEM    = UTC
MEAN_ELEMENT_THEORY = SGP/SGP4

EPOCH          = 2026-01-04T14:57:27.021024
MEAN_MOTION    = 14.85549225
ECCENTRICITY   = .0019646
INCLINATION    = 82.4982
RA_OF_ASC_NODE = 49.4197
ARG_OF_PERICENTER = 222.3282
MEAN_ANOMALY   = 137.6420

EPHEMERIS_TYPE = 0
CLASSIFICATION_TYPE = U
NORAD_CAT_ID   = 18153
ELEMENT_SET_NO = 999
REV_AT_EPOCH   = 6042
BSTAR          = .82837E-4
MEAN_MOTION_DOT = .742E-5
MEAN_MOTION_DDOT = 0

CCSDS_OMM_VERS = 2.0
CREATION_DATE  = 
ORIGINATOR     = 

OBJECT_NAME    = COSMOS 1867
OBJECT_ID      = 1987-060A
CENTER_NAME    = EARTH
REF_FRAME      = TEME
TIME_SYSTEM    = UTC
MEAN_ELEMENT_THEORY = SGP/SGP4

EPOCH          = 2026-01-04T17:27:16.800192
MEAN_MOTION    = 14.31491148
ECCENTRICITY   = .0013805
INCLINATION    = 65.0109
RA_OF_ASC_NODE = 125.8287
ARG_OF_PERICENTER = 273.4826
MEAN_ANOMALY   = 86.4679

EPHEMERIS_TYPE = 0
CLASSIFICATION_TYPE = U
NORAD_CAT_ID   = 18187
ELEMENT_SET_NO = 999
REV_AT_EPOCH   = 1078
BSTAR          = .49631E-4
MEAN_MOTION_DOT = .32E-6
MEAN_MOTION_DDOT = 0

CCSDS_OMM_VERS = 2.0
CREATION_DATE  = 
ORIGINATOR     = 

OBJECT_NAME    = SL-14 R/B
OBJECT_ID      = 1988-001B
CENTER_NAME    = EARTH
REF_FRAME      = TEME
TIME_SYSTEM    = UTC
MEAN_ELEMENT_THEORY = SGP/SGP4

EPOCH          = 2026-01-04T17:58:39.435456
MEAN_MOTION    = 14.85452500
ECCENTRICITY   = .0019616
INCLINATION    = 82.5126
RA_OF_ASC_NODE = 255.5071
ARG_OF_PERICENTER = 89.7747
MEAN_ANOMALY   = 270.5717

EPHEMERIS_TYPE = 0
CLASSIFICATION_TYPE = U
NORAD_CAT_ID   = 18749
ELEMENT_SET_NO = 999
REV_AT_EPOCH   = 3253
BSTAR          = .85694E-4
MEAN_MOTION_DOT = .765E-5
MEAN_MOTION_DDOT = 0

