SL-14 R/B               
1 16792U 86046B   26004.81874082  .00000880  00000+0  98565-4 0  9991
2 16792  82.4830 140.5190 0024530  79.8155 280.5826 14.85516954116929
SL-14 R/B               
1 16882U 86055B   26004.73943161  .00000854  00000+0  95727-4 0  9995
2 16882  82.5198 186.7602 0018863 179.5255 191.0858 14.85559833109878
AJISAI (EGS)            
1 16908U 86061A   26004.78594030 -.00000070  00000+0  19132-3 0  9999
2 16908  50.0102 289.8528 0011315 123.7547 282.1969 12.44514636460043
COSMOS 1812             
1 17295U 87003A   26004.74871117  .00144325  00000+0  72359-3 0  9997
2 17295  82.4862 267.0156 0004716  59.4862 300.6871 15.81331542134281
SL-14 R/B               
1 17567U 87024B   26004.80800141  .00000934  00000+0  10369-3 0  9998
2 17567  82.5289 152.7843 0019555 110.8175 249.5138 14.86056253 78647
COSMOS 1833             
1 17589U 87027A   26004.65401030  .00000358  00000+0  21684-3 0  9994
2 17589  70.9184 100.6102 0023625 299.8969  59.9805 14.13036104  1270
SL-16 R/B               
1 17590U 87027B   26004.53083259  .00000137  00000+0  91650-4 0  9998
2 17590  71.0031  51.6934 0006901 235.6640 124.3832 14.17156504  6256
SL-14 R/B               
1 17912U 87038B   26004.70270523  .00000864  00000+0  97570-4 0  9993
2 17912  82.5014 357.0697 0019839  20.6883 339.5131 14.85289799 69738
COSMOS 1844             
1 17973U 87041A   26004.82746450  .00000115  00000+0  84914-4 0  9991
2 17973  70.8988 168.8749 0028748 120.6591 239.7370 14.14538890994551
SL-14 R/B               
1 18153U 87055B   26004.62322941  .00000742  00000+0  82837-4 0  9998
2 18153  82.4982  49.4197 0019646 222.3282 137.6420 14.85549225 60424
COSMOS 1867             
1 18187U 87060A   26004.72727778  .00000032  00000+0  49631-4 0  9996
2 18187  65.0109 125.8287 0013805 273.4826  86.4679 14.31491148 10782
SL-14 R/B               
1 18749U 88001B   26004.74906754  .00000765  00000+0  85694-4 0  9993
2 18749  82.5126 255.5071 0019616  89.7747 270.5717 14.85452500 32531
